{
  "type": "FeatureCollection",
  "features": [
    {
      "type": "Feature",
      "properties": {
        "norad_id": 54259,
        "name": "EUTELSAT 10B",
        "group": "eutelsat",
        "lat": -0.028504163845843058,
        "lon": -69.29994686347264,
        "alt_km": 35788.77402939355,
        "timestamp": "2025-12-03T13:52:09.237184+00:00",
        "meta_object_name": "EUTELSAT 10B",
        "meta_object_id": "2022-157A",
        "meta_epoch": "2025-12-03T04:33:38.733696",
        "meta_mean_motion": 1.00268425,
        "meta_eccentricity": 0.00010384,
        "meta_inclination": 0.0608,
        "meta_ra_of_asc_node": 103.578,
        "meta_arg_of_pericenter": 72.8343,
        "meta_mean_anomaly": 334.2971,
        "meta_ephemeris_type": 0,
        "meta_classification_type": "U",
        "meta_norad_cat_id": 54259,
        "meta_element_set_no": 999,
        "meta_rev_at_epoch": 1106,
        "meta_bstar": 0,
        "meta_mean_motion_dot": 8.7e-07,
        "meta_mean_motion_ddot": 0,
        "tle_line1": "1 54259U 22157A   25337.19003164  .00000087  00000+0  00000+0 0  9999",
        "tle_line2": "2 54259   0.0608 103.5780 0001038  72.8343 334.2971  1.00268425 11069"
      },
      "geometry": {
        "type": "Point",
        "coordinates": [
          -69.29994686347264,
          -0.028504163845843058
        ]
      }
    },
    {
      "type": "Feature",
      "properties": {
        "norad_id": 59346,
        "name": "EUTELSAT 36D",
        "group": "eutelsat",
        "lat": -0.013312660266313076,
        "lon": -43.4700243173715,
        "alt_km": 35783.855397466345,
        "timestamp": "2025-12-03T13:52:09.237195+00:00",
        "meta_object_name": "EUTELSAT 36D",
        "meta_object_id": "2024-059A",
        "meta_epoch": "2025-12-03T07:04:40.230912",
        "meta_mean_motion": 1.00270698,
        "meta_eccentricity": 6.141e-05,
        "meta_inclination": 0.0218,
        "meta_ra_of_asc_node": 343.4157,
        "meta_arg_of_pericenter": 318.4839,
        "meta_mean_anomaly": 272.505,
        "meta_ephemeris_type": 0,
        "meta_classification_type": "U",
        "meta_norad_cat_id": 59346,
        "meta_element_set_no": 999,
        "meta_rev_at_epoch": 618,
        "meta_bstar": 0,
        "meta_mean_motion_dot": 0,
        "meta_mean_motion_ddot": 0,
        "tle_line1": "1 59346U 24059A   25337.29491008  .00000000  00000+0  00000+0 0  9998",
        "tle_line2": "2 59346   0.0218 343.4157 0000614 318.4839 272.5050  1.00270698  6183"
      },
      "geometry": {
        "type": "Point",
        "coordinates": [
          -43.4700243173715,
          -0.013312660266313076
        ]
      }
    }
  ]
}